[{"OBJECT_NAME":"STARLINK-2017","OBJECT_ID":"2021-005C","EPOCH":"2025-10-22T05:56:39.457824","MEAN_MOTION":15.0643801,"ECCENTRICITY":0.00013733,"INCLINATION":53.0542,"RA_OF_ASC_NODE":283.0987,"ARG_OF_PERICENTER":107.5866,"MEAN_ANOMALY":252.5273,"EPHEMERIS_TYPE":0,"CLASSIFICATION_TYPE":"U","NORAD_CAT_ID":47351,"ELEMENT_SET_NO":999,"REV_AT_EPOCH":26273,"BSTAR":0.0011584799,"MEAN_MOTION_DOT":0.00017034,"MEAN_MOTION_DDOT":0},{"OBJECT_NAME":"STARLINK-2034","OBJECT_ID":"2021-005D","EPOCH":"2025-10-22T11:11:12.719616","MEAN_MOTION":15.06411173,"ECCENTRICITY":0.0001342,"INCLINATION":53.054,"RA_OF_ASC_NODE":322.1298,"ARG_OF_PERICENTER":81.3205,"MEAN_ANOMALY":278.7936,"EPHEMERIS_TYPE":0,"CLASSIFICATION_TYPE":"U","NORAD_CAT_ID":47352,"ELEMENT_SET_NO":999,"REV_AT_EPOCH":26220,"BSTAR":0.00075166,"MEAN_MOTION_DOT":0.00010935,"MEAN_MOTION_DDOT":0},{"OBJECT_NAME":"STARLINK-2045","OBJECT_ID":"2021-005E","EPOCH":"2025-10-22T03:44:41.195904","MEAN_MOTION":15.06384376,"ECCENTRICITY":0.00013737,"INCLINATION":53.055,"RA_OF_ASC_NODE":268.5176,"ARG_OF_PERICENTER":104.1548,"MEAN_ANOMALY":255.9593,"EPHEMERIS_TYPE":0,"CLASSIFICATION_TYPE":"U","NORAD_CAT_ID":47353,"ELEMENT_SET_NO":999,"REV_AT_EPOCH":26293,"BSTAR":0.00010430464,"MEAN_MOTION_DOT":1.272e-5,"MEAN_MOTION_DDOT":0},{"OBJECT_NAME":"STARLINK-2046","OBJECT_ID":"2021-005F","EPOCH":"2025-10-22T08:28:44.827104","MEAN_MOTION":15.06393715,"ECCENTRICITY":0.0001483,"INCLINATION":53.0534,"RA_OF_ASC_NODE":288.1775,"ARG_OF_PERICENTER":98.9714,"MEAN_ANOMALY":261.1443,"EPHEMERIS_TYPE":0,"CLASSIFICATION_TYPE":"U","NORAD_CAT_ID":47354,"ELEMENT_SET_NO":999,"REV_AT_EPOCH":26267,"BSTAR":0.00026659,"MEAN_MOTION_DOT":3.691e-5,"MEAN_MOTION_DDOT":0},{"OBJECT_NAME":"STARLINK-2047","OBJECT_ID":"2021-005G","EPOCH":"2025-10-22T06:09:58.782240","MEAN_MOTION":15.06391487,"ECCENTRICITY":0.00015541,"INCLINATION":53.0547,"RA_OF_ASC_NODE":273.0671,"ARG_OF_PERICENTER":97.7463,"MEAN_ANOMALY":262.3703,"EPHEMERIS_TYPE":0,"CLASSIFICATION_TYPE":"U","NORAD_CAT_ID":47355,"ELEMENT_SET_NO":999,"REV_AT_EPOCH":26287,"BSTAR":7.6910854e-5,"MEAN_MOTION_DOT":8.64e-6,"MEAN_MOTION_DDOT":0},{"OBJECT_NAME":"STARLINK-2049","OBJECT_ID":"2021-005H","EPOCH":"2025-10-22T07:16:19.647552","MEAN_MOTION":15.0640086,"ECCENTRICITY":0.0001514,"INCLINATION":53.0533,"RA_OF_ASC_NODE":292.8632,"ARG_OF_PERICENTER":80.2201,"MEAN_ANOMALY":279.8959,"EPHEMERIS_TYPE":0,"CLASSIFICATION_TYPE":"U","NORAD_CAT_ID":47356,"ELEMENT_SET_NO":999,"REV_AT_EPOCH":26260,"BSTAR":0.00044344238,"MEAN_MOTION_DOT":6.33e-5,"MEAN_MOTION_DDOT":0},{"OBJECT_NAME":"STARLINK-2050","OBJECT_ID":"2021-005J","EPOCH":"2025-10-22T11:37:49.084896","MEAN_MOTION":15.06408971,"ECCENTRICITY":0.0001446,"INCLINATION":53.0538,"RA_OF_ASC_NODE":322.4728,"ARG_OF_PERICENTER":102.4251,"MEAN_ANOMALY":257.69,"EPHEMERIS_TYPE":0,"CLASSIFICATION_TYPE":"U","NORAD_CAT_ID":47357,"ELEMENT_SET_NO":999,"REV_AT_EPOCH":26220,"BSTAR":0.00073763,"MEAN_MOTION_DOT":0.00010725,"MEAN_MOTION_DDOT":0},{"OBJECT_NAME":"STARLINK-2055","OBJECT_ID":"2021-005K","EPOCH":"2025-10-22T09:06:25.910784","MEAN_MOTION":15.06390596,"ECCENTRICITY":0.0001614,"INCLINATION":53.0534,"RA_OF_ASC_NODE":292.5079,"ARG_OF_PERICENTER":101.034,"MEAN_ANOMALY":259.0831,"EPHEMERIS_TYPE":0,"CLASSIFICATION_TYPE":"U","NORAD_CAT_ID":47358,"ELEMENT_SET_NO":999,"REV_AT_EPOCH":26261,"BSTAR":0.00021402,"MEAN_MOTION_DOT":2.907e-5,"MEAN_MOTION_DDOT":0},{"OBJECT_NAME":"STARLINK-2069","OBJECT_ID":"2021-005L","EPOCH":"2025-10-22T12:00:02.000160","MEAN_MOTION":15.61290573,"ECCENTRICITY":0.0005797,"INCLINATION":53.0173,"RA_OF_ASC_NODE":236.1153,"ARG_OF_PERICENTER":98.4893,"MEAN_ANOMALY":272.9952,"EPHEMERIS_TYPE":0,"CLASSIFICATION_TYPE":"U","NORAD_CAT_ID":47359,"ELEMENT_SET_NO":999,"REV_AT_EPOCH":596,"BSTAR":0.0015863,"MEAN_MOTION_DOT":0.0013916,"MEAN_MOTION_DDOT":0},{"OBJECT_NAME":"STARLINK-2071","OBJECT_ID":"2021-005N","EPOCH":"2025-10-22T09:18:25.553664","MEAN_MOTION":15.06405016,"ECCENTRICITY":0.0001423,"INCLINATION":53.0528,"RA_OF_ASC_NODE":292.4802,"ARG_OF_PERICENTER":88.2764,"MEAN_ANOMALY":271.8388,"EPHEMERIS_TYPE":0,"CLASSIFICATION_TYPE":"U","NORAD_CAT_ID":47361,"ELEMENT_SET_NO":999,"REV_AT_EPOCH":26261,"BSTAR":0.00076308,"MEAN_MOTION_DOT":0.00011104,"MEAN_MOTION_DDOT":0},{"OBJECT_NAME":"STARLINK-2076","OBJECT_ID":"2021-005P","EPOCH":"2025-10-22T11:58:59.024064","MEAN_MOTION":15.06401304,"ECCENTRICITY":0.0001647,"INCLINATION":53.0543,"RA_OF_ASC_NODE":321.9778,"ARG_OF_PERICENTER":80.6849,"MEAN_ANOMALY":279.4326,"EPHEMERIS_TYPE":0,"CLASSIFICATION_TYPE":"U","NORAD_CAT_ID":47362,"ELEMENT_SET_NO":999,"REV_AT_EPOCH":26221,"BSTAR":0.00041122,"MEAN_MOTION_DOT":5.849e-5,"MEAN_MOTION_DDOT":0},{"OBJECT_NAME":"STARLINK-2081","OBJECT_ID":"2021-005T","EPOCH":"2025-10-22T11:05:54.047040","MEAN_MOTION":15.06402794,"ECCENTRICITY":0.0001317,"INCLINATION":53.0539,"RA_OF_ASC_NODE":322.1461,"ARG_OF_PERICENTER":102.9642,"MEAN_ANOMALY":257.1494,"EPHEMERIS_TYPE":0,"CLASSIFICATION_TYPE":"U","NORAD_CAT_ID":47366,"ELEMENT_SET_NO":999,"REV_AT_EPOCH":26220,"BSTAR":0.00067154,"MEAN_MOTION_DOT":9.736e-5,"MEAN_MOTION_DDOT":0},{"OBJECT_NAME":"STARLINK-2082","OBJECT_ID":"2021-005U","EPOCH":"2025-10-22T11:43:03.249120","MEAN_MOTION":15.06403613,"ECCENTRICITY":0.0001479,"INCLINATION":53.0547,"RA_OF_ASC_NODE":322.0293,"ARG_OF_PERICENTER":94.9438,"MEAN_ANOMALY":265.172,"EPHEMERIS_TYPE":0,"CLASSIFICATION_TYPE":"U","NORAD_CAT_ID":47367,"ELEMENT_SET_NO":999,"REV_AT_EPOCH":26221,"BSTAR":0.000415,"MEAN_MOTION_DOT":5.906e-5,"MEAN_MOTION_DDOT":0},{"OBJECT_NAME":"STARLINK-2084","OBJECT_ID":"2021-005V","EPOCH":"2025-10-22T11:32:26.507904","MEAN_MOTION":15.06404745,"ECCENTRICITY":0.0001355,"INCLINATION":53.054,"RA_OF_ASC_NODE":322.0639,"ARG_OF_PERICENTER":106.1028,"MEAN_ANOMALY":254.0111,"EPHEMERIS_TYPE":0,"CLASSIFICATION_TYPE":"U","NORAD_CAT_ID":47368,"ELEMENT_SET_NO":999,"REV_AT_EPOCH":26221,"BSTAR":0.00069057,"MEAN_MOTION_DOT":0.00010021,"MEAN_MOTION_DDOT":0},{"OBJECT_NAME":"STARLINK-2086","OBJECT_ID":"2021-005X","EPOCH":"2025-10-22T12:00:02.000160","MEAN_MOTION":15.54583861,"ECCENTRICITY":0.0014416,"INCLINATION":53.0478,"RA_OF_ASC_NODE":257.5699,"ARG_OF_PERICENTER":37.3009,"MEAN_ANOMALY":130.5585,"EPHEMERIS_TYPE":0,"CLASSIFICATION_TYPE":"U","NORAD_CAT_ID":47370,"ELEMENT_SET_NO":999,"REV_AT_EPOCH":594,"BSTAR":0.0025561,"MEAN_MOTION_DOT":0.00175886,"MEAN_MOTION_DDOT":0},{"OBJECT_NAME":"STARLINK-2088","OBJECT_ID":"2021-005Y","EPOCH":"2025-10-22T11:53:40.562304","MEAN_MOTION":15.06401277,"ECCENTRICITY":0.000154,"INCLINATION":53.0545,"RA_OF_ASC_NODE":321.9951,"ARG_OF_PERICENTER":77.1987,"MEAN_ANOMALY":282.9174,"EPHEMERIS_TYPE":0,"CLASSIFICATION_TYPE":"U","NORAD_CAT_ID":47371,"ELEMENT_SET_NO":999,"REV_AT_EPOCH":26221,"BSTAR":0.0005703,"MEAN_MOTION_DOT":8.224e-5,"MEAN_MOTION_DDOT":0}]
