47351,STARLINK-2017,2021,95.59,260.0,+,53.05,Active,1,LEO,USA,USA,Commercial,Communications,Falcon,1 47351U 21005C   25295.24767891  .00017034  00000+0  11585-2 0  9991,2 47351  53.0542 283.0987 0001373 107.5866 252.5273 15.06438010262739,15.0643801,0.0001373,LEO
47352,STARLINK-2034,2021,95.59,260.0,+,53.05,Active,1,LEO,USA,USA,Commercial,Communications,Falcon,1 47352U 21005D   25295.46611944  .00010935  00000+0  75166-3 0  9992,2 47352  53.0540 322.1298 0001342  81.3205 278.7936 15.06411173262209,15.06411173,0.0001342,LEO
47353,STARLINK-2045,2021,95.59,260.0,+,53.05,Active,1,LEO,USA,USA,Commercial,Communications,Falcon,1 47353U 21005E   25295.15603236  .00001272  00000+0  10430-3 0  9991,2 47353  53.0550 268.5176 0001373 104.1548 255.9593 15.06384376262937,15.06384376,0.0001373,LEO
47354,STARLINK-2046,2021,95.59,260.0,+,53.05,Active,1,LEO,USA,USA,Commercial,Communications,Falcon,1 47354U 21005F   25295.35329661  .00003691  00000+0  26659-3 0  9998,2 47354  53.0534 288.1775 0001483  98.9714 261.1443 15.06393715262671,15.06393715,0.0001483,LEO
47355,STARLINK-2047,2021,95.59,260.0,+,53.05,Active,1,LEO,USA,USA,Commercial,Communications,Falcon,1 47355U 21005G   25295.25693035  .00000864  00000+0  76911-4 0  9993,2 47355  53.0547 273.0671 0001554  97.7463 262.3703 15.06391487262879,15.06391487,0.0001554,LEO
47356,STARLINK-2049,2021,95.59,260.0,+,53.05,Active,1,LEO,USA,USA,Commercial,Communications,Falcon,1 47356U 21005H   25295.30300518  .00006330  00000+0  44344-3 0  9999,2 47356  53.0533 292.8632 0001514  80.2201 279.8959 15.06400860262607,15.0640086,0.0001514,LEO
47357,STARLINK-2050,2021,95.59,260.0,+,53.05,Active,1,LEO,USA,USA,Commercial,Communications,Falcon,1 47357U 21005J   25295.48459589  .00010725  00000+0  73763-3 0  9992,2 47357  53.0538 322.4728 0001446 102.4251 257.6900 15.06408971262202,15.06408971,0.0001446,LEO
47358,STARLINK-2055,2021,95.59,260.0,+,53.05,Active,1,LEO,USA,USA,Commercial,Communications,Falcon,1 47358U 21005K   25295.37946656  .00002907  00000+0  21402-3 0  9993,2 47358  53.0534 292.5079 0001614 101.0340 259.0831 15.06390596262613,15.06390596,0.0001614,LEO
47359,STARLINK-2069,2021,92.23,260.0,P,53.02,Active,1,LEO,USA,USA,Commercial,Communications,Falcon,1 47359U 21005L   25295.50002315  .00139160  00000+0  15863-2 0  9999,2 47359  53.0173 236.1153 0005797  98.4893 272.9952 15.61290573  5964,15.61290573,0.0005797,LEO
47361,STARLINK-2071,2021,95.59,260.0,+,53.05,Active,1,LEO,USA,USA,Commercial,Communications,Falcon,1 47361U 21005N   25295.38779576  .00011104  00000+0  76308-3 0  9997,2 47361  53.0528 292.4802 0001423  88.2764 271.8388 15.06405016262610,15.06405016,0.0001423,LEO
47362,STARLINK-2076,2021,95.59,260.0,+,53.05,Active,1,LEO,USA,USA,Commercial,Communications,Falcon,1 47362U 21005P   25295.49929426  .00005849  00000+0  41122-3 0  9996,2 47362  53.0543 321.9778 0001647  80.6849 279.4326 15.06401304262214,15.06401304,0.0001647,LEO
47366,STARLINK-2081,2021,95.59,260.0,+,53.05,Active,1,LEO,USA,USA,Commercial,Communications,Falcon,1 47366U 21005T   25295.46243110  .00009736  00000+0  67154-3 0  9998,2 47366  53.0539 322.1461 0001317 102.9642 257.1494 15.06402794262200,15.06402794,0.0001317,LEO
47367,STARLINK-2082,2021,95.59,260.0,+,53.05,Active,1,LEO,USA,USA,Commercial,Communications,Falcon,1 47367U 21005U   25295.48823205  .00005906  00000+0  41500-3 0  9992,2 47367  53.0547 322.0293 0001479  94.9438 265.1720 15.06403613262217,15.06403613,0.0001479,LEO
47368,STARLINK-2084,2021,95.59,260.0,+,53.05,Active,1,LEO,USA,USA,Commercial,Communications,Falcon,1 47368U 21005V   25295.48086236  .00010021  00000+0  69057-3 0  9999,2 47368  53.0540 322.0639 0001355 106.1028 254.0111 15.06404745262217,15.06404745,0.0001355,LEO
47370,STARLINK-2086,2021,92.63,260.0,P,53.05,Active,1,LEO,USA,USA,Commercial,Communications,Falcon,1 47370U 21005X   25295.50002315  .00175886  00000+0  25561-2 0  9993,2 47370  53.0478 257.5699 0014416  37.3009 130.5585 15.54583861  5942,15.54583861,0.0014416,LEO
47371,STARLINK-2088,2021,95.59,260.0,+,53.05,Active,1,LEO,USA,USA,Commercial,Communications,Falcon,1 47371U 21005Y   25295.49560836  .00008224  00000+0  57030-3 0  9997,2 47371  53.0545 321.9951 0001540  77.1987 282.9174 15.06401277262214,15.06401277,0.000154,LEO
